OBJECT_NAME,OBJECT_ID,EPOCH,MEAN_MOTION,ECCENTRICITY,INCLINATION,RA_OF_ASC_NODE,ARG_OF_PERICENTER,MEAN_ANOMALY,EPHEMERIS_TYPE,CLASSIFICATION_TYPE,NORAD_CAT_ID,ELEMENT_SET_NO,REV_AT_EPOCH,BSTAR,MEAN_MOTION_DOT,MEAN_MOTION_DDOT
SL-16 R/B,1996-051B,2026-07-13T03:55:44.975136,14.12455688,.0017648,70.7648,269.6761,300.7127,59.2253,0,U,24298,999,53936,.10722E-3,.149E-5,0
ORBVIEW 2 (SEASTAR),1997-037A,2026-07-12T21:04:41.971584,14.35566188,.0003136,98.8711,1.6123,65.5807,294.5705,0,U,24883,999,52643,.55497E-4,.113E-5,0
SL-16 R/B,1998-043G,2026-07-12T19:57:51.642144,14.26072492,.0010161,98.8378,148.2137,18.0514,342.1024,0,U,25400,999,45682,.1594E-4,-.7E-7,0
SL-16 R/B,1998-045B,2026-07-13T03:47:30.431040,14.16206057,.0008319,71.0114,277.7129,209.6452,150.4201,0,U,25407,999,44486,-.98828E-4,-.244E-5,0
ISS (ZARYA),1998-067A,2026-07-13T02:54:40.039200,15.48996109,.0006685,51.6304,171.7447,289.3803,70.6462,0,U,25544,999,57577,.86456E-4,.4316E-4,0
CZ-4B R/B,1999-025C,2026-07-13T02:13:35.861088,14.18287488,.0036744,98.6473,235.2777,345.8565,40.8493,0,U,25732,999,40594,.32307E-4,.24E-6,0
OKEAN-O,1999-039A,2026-07-12T18:14:36.780288,14.80495702,.0000928,97.9303,252.2628,82.8184,277.3133,0,U,25860,999,45289,.43799E-4,.283E-5,0
SL-16 R/B,1999-039B,2026-07-13T02:17:58.358976,14.81869576,.0014166,97.9824,252.8832,205.4976,154.5539,0,U,25861,999,45543,.37296E-4,.241E-5,0
DELTA 2 R/B,1999-041E,2026-07-12T22:33:19.607328,14.12078490,.050133,51.7613,160.9088,358.0973,1.8044,0,U,25876,999,38072,.24967E-3,.1315E-4,0
HELIOS 1B,1999-064A,2026-07-13T03:13:49.300032,14.88072367,.0002062,98.1588,100.0232,56.5993,303.5420,0,U,25977,999,70391,.82482E-4,.7E-5,0
TERRA,1999-068A,2026-07-13T04:24:33.020064,14.61122780,.0003328,97.9443,242.6974,126.8576,326.3419,0,U,25994,999,41340,.50268E-4,.203E-5,0
SL-16 R/B,2000-006B,2026-07-12T23:51:16.887744,14.15838534,.0017105,71.0002,194.3615,343.0288,17.0260,0,U,26070,999,36629,-.85221E-4,-.216E-5,0
TITAN 4B R/B,2000-047B,2026-07-13T03:41:25.806624,15.10327356,.0045878,67.9872,47.4750,260.7886,98.8072,0,U,26474,999,41185,.86521E-4,.1314E-4,0
ENVISAT,2002-009A,2026-07-12T21:45:58.866912,14.39070470,.000134,98.3846,144.6536,84.1367,343.8430,0,U,27386,999,27718,.19975E-4,.19E-6,0
IDEFIX & ARIANE 42P R/B,2002-021B,2026-07-12T18:56:16.664928,14.31093152,.0011734,98.5942,130.9953,173.4900,186.6438,0,U,27422,999,26191,.51657E-4,.92E-6,0
AQUA,2002-022A,2026-07-13T04:39:21.054816,14.62195357,.0000879,98.4294,163.9995,109.5064,306.2066,0,U,27424,999,28707,.8473E-4,.377E-5,0
CZ-4B R/B,2002-024C,2026-07-12T23:38:00.393792,14.14567965,.0050575,98.8688,246.6356,28.2172,21.4970,0,U,27432,999,24695,.28071E-4,.1E-6,0
MIDORI II (ADEOS-II),2002-056A,2026-07-12T21:33:52.770816,14.29362450,.0001581,98.7893,153.3791,43.3981,316.7325,0,U,27597,999,22818,.59669E-4,.107E-5,0
H-2A R/B,2002-056E,2026-07-12T21:39:42.230304,14.33833159,.0070764,98.3327,149.6416,147.6939,278.6451,0,U,27601,999,23205,.55877E-4,.119E-5,0
CZ-4B R/B,2003-049C,2026-07-13T00:25:19.477056,14.55115266,.0047508,98.6908,193.8937,207.9769,151.8872,0,U,28059,999,20482,.452E-4,.146E-5,0
CZ-2C R/B,2004-012C,2026-07-13T03:52:27.183936,15.84778211,.0011468,97.7067,272.9570,197.3679,162.7199,0,U,28222,999,22400,.42892E-3,.100274E-2,0
SL-16 R/B,2004-021B,2026-07-12T19:54:48.297024,14.14616126,.000639,71.0026,329.8723,227.0612,132.9975,0,U,28353,999,14053,.53173E-4,.55E-6,0
CZ-4B R/B,2004-035C,2026-07-13T02:00:08.135136,15.30974783,.0029114,97.3359,226.8692,240.5375,119.2961,0,U,28415,999,19908,.15716E-3,.4684E-4,0
CZ-2C R/B,2004-046B,2026-07-13T04:55:06.498048,14.27032739,.0140015,98.1919,101.3566,143.2488,217.8394,0,U,28480,999,12640,.32889E-4,.49E-6,0
ARIANE 5 R/B,2004-049H,2026-07-12T22:17:31.529760,14.85477539,.0082731,98.2739,7.1798,305.7334,53.6203,0,U,28499,999,16438,.39256E-4,.293E-5,0
CZ-2D R/B,2005-024B,2026-07-13T00:22:39.379584,15.72551891,.0002037,97.3471,214.7884,197.1497,162.9698,0,U,28738,999,15939,.40848E-3,.54658E-3,0
ALOS (DAICHI),2006-002A,2026-07-12T21:17:15.200736,14.70099332,.00008,98.1336,149.3767,93.8796,266.2501,0,U,28931,999,9187,.92478E-4,.506E-5,0
H-2A R/B,2006-002B,2026-07-13T00:31:39.637920,15.18424873,.0050675,98.2583,352.1981,173.3647,186.8267,0,U,28932,999,11344,.2398E-3,.5019E-4,0
RESURS-DK 1,2006-021A,2026-07-13T05:04:21.529920,15.13315244,.0006977,69.9309,272.1824,273.2712,86.7656,0,U,29228,999,10651,.62348E-4,.1004E-4,0
CZ-4B R/B,2006-046C,2026-07-13T03:51:30.972096,15.17971389,.003237,97.5442,238.6879,189.2203,170.8440,0,U,29507,999,7907,.11591E-3,.2315E-4,0
CZ-2C R/B,2007-010B,2026-07-13T04:42:38.477088,14.20281492,.0057805,98.4117,301.2777,289.7006,69.7941,0,U,31114,999,99753,.30848E-4,.25E-6,0
