SL-16 R/B               
1 24298U 96051B   26194.16371499  .00000149  00000+0  10722-3 0  9996
2 24298  70.7648 269.6761 0017648 300.7127  59.2253 14.12455688539368
ORBVIEW 2 (SEASTAR)     
1 24883U 97037A   26193.87826356  .00000113  00000+0  55497-4 0  9995
2 24883  98.8711   1.6123 0003136  65.5807 294.5705 14.35566188526437
SL-16 R/B               
1 25400U 98043G   26193.83184771 -.00000007  00000+0  15940-4 0  9995
2 25400  98.8378 148.2137 0010161  18.0514 342.1024 14.26072492456828
SL-16 R/B               
1 25407U 98045B   26194.15799110 -.00000244  00000+0 -98828-4 0  9999
2 25407  71.0114 277.7129 0008319 209.6452 150.4201 14.16206057444869
ISS (ZARYA)             
1 25544U 98067A   26194.12129675  .00004316  00000+0  86456-4 0  9991
2 25544  51.6304 171.7447 0006685 289.3803  70.6462 15.48996109575778
CZ-4B R/B               
1 25732U 99025C   26194.09277617  .00000024  00000+0  32307-4 0  9999
2 25732  98.6473 235.2777 0036744 345.8565  40.8493 14.18287488405942
OKEAN-O                 
1 25860U 99039A   26193.76014792  .00000283  00000+0  43799-4 0  9996
2 25860  97.9303 252.2628 0000928  82.8184 277.3133 14.80495702452895
SL-16 R/B               
1 25861U 99039B   26194.09581434  .00000241  00000+0  37296-4 0  9995
2 25861  97.9824 252.8832 0014166 205.4976 154.5539 14.81869576455432
DELTA 2 R/B             
1 25876U 99041E   26193.93981027  .00001315  00000+0  24967-3 0  9991
2 25876  51.7613 160.9088 0501330 358.0973   1.8044 14.12078490380725
HELIOS 1B               
1 25977U 99064A   26194.13459838  .00000700  00000+0  82482-4 0  9995
2 25977  98.1588 100.0232 0002062  56.5993 303.5420 14.88072367703919
TERRA                   
1 25994U 99068A   26194.18371551  .00000203  00000+0  50268-4 0  9993
2 25994  97.9443 242.6974 0003328 126.8576 326.3419 14.61122780413404
SL-16 R/B               
1 26070U 00006B   26193.99394546 -.00000216  00000+0 -85221-4 0  9993
2 26070  71.0002 194.3615 0017105 343.0288  17.0260 14.15838534366292
TITAN 4B R/B            
1 26474U 00047B   26194.15377091  .00001314  00000+0  86521-4 0  9993
2 26474  67.9872  47.4750 0045878 260.7886  98.8072 15.10327356411856
ENVISAT                 
1 27386U 02009A   26193.90693133  .00000019  00000+0  19975-4 0  9996
2 27386  98.3846 144.6536 0001340  84.1367 343.8430 14.39070470277187
IDEFIX & ARIANE 42P R/B 
1 27422U 02021B   26193.78908177  .00000092  00000+0  51657-4 0  9998
2 27422  98.5942 130.9953 0011734 173.4900 186.6438 14.31093152261910
AQUA                    
1 27424U 02022A   26194.19399369  .00000377  00000+0  84730-4 0  9998
2 27424  98.4294 163.9995 0000879 109.5064 306.2066 14.62195357287078
CZ-4B R/B               
1 27432U 02024C   26193.98472678  .00000010  00000+0  28071-4 0  9990
2 27432  98.8688 246.6356 0050575  28.2172  21.4970 14.14567965246950
MIDORI II (ADEOS-II)    
1 27597U 02056A   26193.89852744  .00000107  00000+0  59669-4 0  9997
2 27597  98.7893 153.3791 0001581  43.3981 316.7325 14.29362450228182
H-2A R/B                
1 27601U 02056E   26193.90257211  .00000119  00000+0  55877-4 0  9993
2 27601  98.3327 149.6416 0070764 147.6939 278.6451 14.33833159232059
CZ-4B R/B               
1 28059U 03049C   26194.01758654  .00000146  00000+0  45200-4 0  9993
2 28059  98.6908 193.8937 0047508 207.9769 151.8872 14.55115266204824
CZ-2C R/B               
1 28222U 04012C   26194.16142574  .00100274  00000+0  42892-3 0  9996
2 28222  97.7067 272.9570 0011468 197.3679 162.7199 15.84778211224005
SL-16 R/B               
1 28353U 04021B   26193.82972566  .00000055  00000+0  53173-4 0  9996
2 28353  71.0026 329.8723 0006390 227.0612 132.9975 14.14616126140532
CZ-4B R/B               
1 28415U 04035C   26194.08342749  .00004684  00000+0  15716-3 0  9995
2 28415  97.3359 226.8692 0029114 240.5375 119.2961 15.30974783199089
CZ-2C R/B               
1 28480U 04046B   26194.20493632  .00000049  00000+0  32889-4 0  9993
2 28480  98.1919 101.3566 0140015 143.2488 217.8394 14.27032739126409
ARIANE 5 R/B            
1 28499U 04049H   26193.92883715  .00000293  00000+0  39256-4 0  9995
2 28499  98.2739   7.1798 0082731 305.7334  53.6203 14.85477539164384
CZ-2D R/B               
1 28738U 05024B   26194.01573356  .00054658  00000+0  40848-3 0  9995
2 28738  97.3471 214.7884 0002037 197.1497 162.9698 15.72551891159397
ALOS (DAICHI)           
1 28931U 06002A   26193.88698149  .00000506  00000+0  92478-4 0  9999
2 28931  98.1336 149.3767 0000800  93.8796 266.2501 14.70099332 91877
H-2A R/B                
1 28932U 06002B   26194.02198655  .00005019  00000+0  23980-3 0  9999
2 28932  98.2583 352.1981 0050675 173.3647 186.8267 15.18424873113448
RESURS-DK 1             
1 29228U 06021A   26194.21136030  .00001004  00000+0  62348-4 0  9991
2 29228  69.9309 272.1824 0006977 273.2712  86.7656 15.13315244106510
CZ-4B R/B               
1 29507U 06046C   26194.16077514  .00002315  00000+0  11591-3 0  9992
2 29507  97.5442 238.6879 0032370 189.2203 170.8440 15.17971389 79077
CZ-2C R/B               
1 31114U 07010B   26194.19627867  .00000025  00000+0  30848-4 0  9999
2 31114  98.4117 301.2777 0057805 289.7006  69.7941 14.20281492997538
